[
    {
        "Altitude(m)": 604983.052955585,
        "Argument of Periapsis(deg)": 0.0,
        "Eccentricity": 0.0,
        "Inclination(deg)": 60.0,
        "Latitude(deg)": -0.09263655703492765,
        "Longitude(deg)": -174.91608378814036,
        "Mean Anomaly(deg)": 179.99999999999997,
        "RAAN(deg)": 105.0,
        "Satellite Name": "Test1 473",
        "Satellite Number": 473,
        "Semi-Major Axis(m)": 6980739.136638005,
        "Time(s)": 0
    },
    {
        "Altitude(m)": 605055.3323408837,
        "Argument of Periapsis(deg)": 0.00010418945913296404,
        "Eccentricity": 0.0,
        "Inclination(deg)": 60.0,
        "Latitude(deg)": -0.6330469853937307,
        "Longitude(deg)": -174.6479599805329,
        "Mean Anomaly(deg)": 180.62010614546182,
        "RAAN(deg)": 104.99957995086028,
        "Satellite Name": "Test1 473",
        "Satellite Number": 473,
        "Semi-Major Axis(m)": 6980739.136638005,
        "Time(s)": 10
    }
]